{
  "type": "FeatureCollection",
  "features": [
    {
      "type": "Feature",
      "properties": {
        "norad_id": 42988,
        "name": "SKYSAT-C10",
        "group": "resource",
        "lat": -20.100270441902445,
        "lon": -61.713724581989254,
        "alt_km": 475.8085738442014,
        "timestamp": "2025-12-16T03:53:26.716445+00:00",
        "meta_object_name": "SKYSAT-C10",
        "meta_object_id": "2017-068B",
        "meta_epoch": "2025-12-15T08:12:38.966688",
        "meta_mean_motion": 15.32123336,
        "meta_eccentricity": 0.00054195,
        "meta_inclination": 97.4254,
        "meta_ra_of_asc_node": 120.1998,
        "meta_arg_of_pericenter": 96.3008,
        "meta_mean_anomaly": 263.8851,
        "meta_ephemeris_type": 0,
        "meta_classification_type": "U",
        "meta_norad_cat_id": 42988,
        "meta_element_set_no": 999,
        "meta_rev_at_epoch": 45419,
        "meta_bstar": 0.00024944767,
        "meta_mean_motion_dot": 7.661e-05,
        "meta_mean_motion_ddot": 0,
        "tle_line1": "1 42988U 17068B   25349.34211767  .00007661  00000+0  24945-3 0  9993",
        "tle_line2": "2 42988  97.4254 120.1998 0005419  96.3008 263.8851 15.32123336454194"
      },
      "geometry": {
        "type": "Point",
        "coordinates": [
          -61.713724581989254,
          -20.100270441902445
        ]
      }
    },
    {
      "type": "Feature",
      "properties": {
        "norad_id": 42989,
        "name": "SKYSAT-C9",
        "group": "resource",
        "lat": 79.91303949263686,
        "lon": -12.466049185241136,
        "alt_km": 443.374846598108,
        "timestamp": "2025-12-16T03:53:26.716455+00:00",
        "meta_object_name": "SKYSAT-C9",
        "meta_object_id": "2017-068C",
        "meta_epoch": "2025-12-15T08:42:39.271392",
        "meta_mean_motion": 15.361228,
        "meta_eccentricity": 0.0010609,
        "meta_inclination": 97.4184,
        "meta_ra_of_asc_node": 119.637,
        "meta_arg_of_pericenter": 79.2076,
        "meta_mean_anomaly": 281.0361,
        "meta_ephemeris_type": 0,
        "meta_classification_type": "U",
        "meta_norad_cat_id": 42989,
        "meta_element_set_no": 999,
        "meta_rev_at_epoch": 45448,
        "meta_bstar": 0.00026962678,
        "meta_mean_motion_dot": 9.424e-05,
        "meta_mean_motion_ddot": 0,
        "tle_line1": "1 42989U 17068C   25349.36295453  .00009424  00000+0  26963-3 0  9991",
        "tle_line2": "2 42989  97.4184 119.6370 0010609  79.2076 281.0361 15.36122800454485"
      },
      "geometry": {
        "type": "Point",
        "coordinates": [
          -12.466049185241136,
          79.91303949263686
        ]
      }
    },
    {
      "type": "Feature",
      "properties": {
        "norad_id": 42990,
        "name": "SKYSAT-C8",
        "group": "resource",
        "lat": 28.680439892754183,
        "lon": 116.08415661960915,
        "alt_km": 465.1221349252892,
        "timestamp": "2025-12-16T03:53:26.716466+00:00",
        "meta_object_name": "SKYSAT-C8",
        "meta_object_id": "2017-068D",
        "meta_epoch": "2025-12-15T08:57:57.451104",
        "meta_mean_motion": 15.32983466,
        "meta_eccentricity": 0.00014123,
        "meta_inclination": 97.4276,
        "meta_ra_of_asc_node": 119.3848,
        "meta_arg_of_pericenter": 335.2622,
        "meta_mean_anomaly": 24.8553,
        "meta_ephemeris_type": 0,
        "meta_classification_type": "U",
        "meta_norad_cat_id": 42990,
        "meta_element_set_no": 999,
        "meta_rev_at_epoch": 45411,
        "meta_bstar": 0.00026742726,
        "meta_mean_motion_dot": 8.442e-05,
        "meta_mean_motion_ddot": 0,
        "tle_line1": "1 42990U 17068D   25349.37358161  .00008442  00000+0  26743-3 0  9995",
        "tle_line2": "2 42990  97.4276 119.3848 0001412 335.2622  24.8553 15.32983466454115"
      },
      "geometry": {
        "type": "Point",
        "coordinates": [
          116.08415661960915,
          28.680439892754183
        ]
      }
    },
    {
      "type": "Feature",
      "properties": {
        "norad_id": 42991,
        "name": "SKYSAT-C7",
        "group": "resource",
        "lat": -56.44743783673473,
        "lon": -70.13062506840457,
        "alt_km": 480.8148035692793,
        "timestamp": "2025-12-16T03:53:26.716476+00:00",
        "meta_object_name": "SKYSAT-C7",
        "meta_object_id": "2017-068E",
        "meta_epoch": "2025-12-15T08:03:10.786464",
        "meta_mean_motion": 15.32385972,
        "meta_eccentricity": 0.00075099,
        "meta_inclination": 97.4282,
        "meta_ra_of_asc_node": 120.3856,
        "meta_arg_of_pericenter": 48.811,
        "meta_mean_anomaly": 311.3779,
        "meta_ephemeris_type": 0,
        "meta_classification_type": "U",
        "meta_norad_cat_id": 42991,
        "meta_element_set_no": 999,
        "meta_rev_at_epoch": 45417,
        "meta_bstar": 0.00025308879,
        "meta_mean_motion_dot": 7.842e-05,
        "meta_mean_motion_ddot": 0,
        "tle_line1": "1 42991U 17068E   25349.33554151  .00007842  00000+0  25309-3 0  9999",
        "tle_line2": "2 42991  97.4282 120.3856 0007509  48.8110 311.3779 15.32385972454174"
      },
      "geometry": {
        "type": "Point",
        "coordinates": [
          -70.13062506840457,
          -56.44743783673473
        ]
      }
    },
    {
      "type": "Feature",
      "properties": {
        "norad_id": 42992,
        "name": "SKYSAT-C6",
        "group": "resource",
        "lat": -16.300960183635155,
        "lon": 123.83848250683343,
        "alt_km": 476.0286066322906,
        "timestamp": "2025-12-16T03:53:26.716487+00:00",
        "meta_object_name": "SKYSAT-C6",
        "meta_object_id": "2017-068F",
        "meta_epoch": "2025-12-15T07:34:39.906624",
        "meta_mean_motion": 15.31546551,
        "meta_eccentricity": 0.00051315,
        "meta_inclination": 97.4317,
        "meta_ra_of_asc_node": 120.8023,
        "meta_arg_of_pericenter": 75.4052,
        "meta_mean_anomaly": 284.7758,
        "meta_ephemeris_type": 0,
        "meta_classification_type": "U",
        "meta_norad_cat_id": 42992,
        "meta_element_set_no": 999,
        "meta_rev_at_epoch": 45415,
        "meta_bstar": 0.00026449874,
        "meta_mean_motion_dot": 7.983e-05,
        "meta_mean_motion_ddot": 0,
        "tle_line1": "1 42992U 17068F   25349.31573966  .00007983  00000+0  26450-3 0  9997",
        "tle_line2": "2 42992  97.4317 120.8023 0005131  75.4052 284.7758 15.31546551454154"
      },
      "geometry": {
        "type": "Point",
        "coordinates": [
          123.83848250683343,
          -16.300960183635155
        ]
      }
    },
    {
      "type": "Feature",
      "properties": {
        "norad_id": 43111,
        "name": "CARTOSAT-2F",
        "group": "resource",
        "lat": -59.54614986297762,
        "lon": 60.57166247703951,
        "alt_km": 515.8214809914089,
        "timestamp": "2025-12-16T03:53:26.716498+00:00",
        "meta_object_name": "CARTOSAT-2F",
        "meta_object_id": "2018-004A",
        "meta_epoch": "2025-12-15T07:36:26.784288",
        "meta_mean_motion": 15.19305978,
        "meta_eccentricity": 0.0001162,
        "meta_inclination": 97.4318,
        "meta_ra_of_asc_node": 46.913,
        "meta_arg_of_pericenter": 144.807,
        "meta_mean_anomaly": 215.3242,
        "meta_ephemeris_type": 0,
        "meta_classification_type": "U",
        "meta_norad_cat_id": 43111,
        "meta_element_set_no": 999,
        "meta_rev_at_epoch": 43941,
        "meta_bstar": 0.00023442813,
        "meta_mean_motion_dot": 4.881e-05,
        "meta_mean_motion_ddot": 0,
        "tle_line1": "1 43111U 18004A   25349.31697667  .00004881  00000+0  23443-3 0  9990",
        "tle_line2": "2 43111  97.4318  46.9130 0001162 144.8070 215.3242 15.19305978439419"
      },
      "geometry": {
        "type": "Point",
        "coordinates": [
          60.57166247703951,
          -59.54614986297762
        ]
      }
    },
    {
      "type": "Feature",
      "properties": {
        "norad_id": 43259,
        "name": "GAOFEN-1 02",
        "group": "resource",
        "lat": -76.24500757726638,
        "lon": -167.52473093287293,
        "alt_km": 647.1828333268159,
        "timestamp": "2025-12-16T03:53:26.716508+00:00",
        "meta_object_name": "GAOFEN-1 02",
        "meta_object_id": "2018-031A",
        "meta_epoch": "2025-12-15T08:49:48.510912",
        "meta_mean_motion": 14.76422822,
        "meta_eccentricity": 0.00018955,
        "meta_inclination": 98.0807,
        "meta_ra_of_asc_node": 47.1584,
        "meta_arg_of_pericenter": 207.0293,
        "meta_mean_anomaly": 153.0818,
        "meta_ephemeris_type": 0,
        "meta_classification_type": "U",
        "meta_norad_cat_id": 43259,
        "meta_element_set_no": 999,
        "meta_rev_at_epoch": 41557,
        "meta_bstar": 0.00015520134,
        "meta_mean_motion_dot": 1.027e-05,
        "meta_mean_motion_ddot": 0,
        "tle_line1": "1 43259U 18031A   25349.36792258  .00001027  00000+0  15520-3 0  9996",
        "tle_line2": "2 43259  98.0807  47.1584 0001895 207.0293 153.0818 14.76422822415578"
      },
      "geometry": {
        "type": "Point",
        "coordinates": [
          -167.52473093287293,
          -76.24500757726638
        ]
      }
    }
  ]
}